[{"OBJECT_NAME":"STARLINK-31708","OBJECT_ID":"2024-065U","EPOCH":"2025-11-21T14:21:55.386144","MEAN_MOTION":15.30176948,"ECCENTRICITY":0.0001233,"INCLINATION":53.1612,"RA_OF_ASC_NODE":63.4986,"ARG_OF_PERICENTER":152.9144,"MEAN_ANOMALY":207.1921,"EPHEMERIS_TYPE":0,"CLASSIFICATION_TYPE":"U","NORAD_CAT_ID":59439,"ELEMENT_SET_NO":999,"REV_AT_EPOCH":9238,"BSTAR":-4.7506e-5,"MEAN_MOTION_DOT":-1.765e-5,"MEAN_MOTION_DDOT":0},{"OBJECT_NAME":"STARLINK-31693","OBJECT_ID":"2024-065W","EPOCH":"2025-11-22T11:21:04.203648","MEAN_MOTION":15.30191718,"ECCENTRICITY":0.0001255,"INCLINATION":53.1611,"RA_OF_ASC_NODE":59.711,"ARG_OF_PERICENTER":81.6161,"MEAN_ANOMALY":278.4982,"EPHEMERIS_TYPE":0,"CLASSIFICATION_TYPE":"U","NORAD_CAT_ID":59441,"ELEMENT_SET_NO":999,"REV_AT_EPOCH":9251,"BSTAR":8.9965e-6,"MEAN_MOTION_DOT":-9.3e-7,"MEAN_MOTION_DDOT":0},{"OBJECT_NAME":"STARLINK-31622","OBJECT_ID":"2024-068B","EPOCH":"2025-11-21T22:55:06.214656","MEAN_MOTION":15.27559088,"ECCENTRICITY":0.0001212,"INCLINATION":43.0026,"RA_OF_ASC_NODE":283.1602,"ARG_OF_PERICENTER":274.5825,"MEAN_ANOMALY":85.4888,"EPHEMERIS_TYPE":0,"CLASSIFICATION_TYPE":"U","NORAD_CAT_ID":59456,"ELEMENT_SET_NO":999,"REV_AT_EPOCH":9204,"BSTAR":0.00023472,"MEAN_MOTION_DOT":6.198e-5,"MEAN_MOTION_DDOT":0},{"OBJECT_NAME":"STARLINK-31319","OBJECT_ID":"2024-068C","EPOCH":"2025-11-21T22:20:38.355936","MEAN_MOTION":15.27582952,"ECCENTRICITY":0.000114,"INCLINATION":43.0041,"RA_OF_ASC_NODE":279.525,"ARG_OF_PERICENTER":271.8362,"MEAN_ANOMALY":88.2359,"EPHEMERIS_TYPE":0,"CLASSIFICATION_TYPE":"U","NORAD_CAT_ID":59457,"ELEMENT_SET_NO":999,"REV_AT_EPOCH":9208,"BSTAR":1.975e-5,"MEAN_MOTION_DOT":2.81e-6,"MEAN_MOTION_DDOT":0},{"OBJECT_NAME":"STARLINK-31625","OBJECT_ID":"2024-068D","EPOCH":"2025-11-22T06:31:03.622080","MEAN_MOTION":15.27599051,"ECCENTRICITY":0.0001232,"INCLINATION":43.0032,"RA_OF_ASC_NODE":281.2371,"ARG_OF_PERICENTER":276.0119,"MEAN_ANOMALY":84.0592,"EPHEMERIS_TYPE":0,"CLASSIFICATION_TYPE":"U","NORAD_CAT_ID":59458,"ELEMENT_SET_NO":999,"REV_AT_EPOCH":9209,"BSTAR":6.0606e-5,"MEAN_MOTION_DOT":1.407e-5,"MEAN_MOTION_DDOT":0},{"OBJECT_NAME":"STARLINK-31631","OBJECT_ID":"2024-068E","EPOCH":"2025-11-22T05:51:03.832704","MEAN_MOTION":15.27556149,"ECCENTRICITY":4.6e-5,"INCLINATION":43.0016,"RA_OF_ASC_NODE":277.5686,"ARG_OF_PERICENTER":273.8067,"MEAN_ANOMALY":86.2732,"EPHEMERIS_TYPE":0,"CLASSIFICATION_TYPE":"U","NORAD_CAT_ID":59459,"ELEMENT_SET_NO":999,"REV_AT_EPOCH":9213,"BSTAR":0.00023277,"MEAN_MOTION_DOT":6.144e-5,"MEAN_MOTION_DDOT":0},{"OBJECT_NAME":"STARLINK-31620","OBJECT_ID":"2024-068F","EPOCH":"2025-11-22T06:22:30.781056","MEAN_MOTION":15.27587752,"ECCENTRICITY":9.77e-5,"INCLINATION":43.0026,"RA_OF_ASC_NODE":277.7325,"ARG_OF_PERICENTER":265.2833,"MEAN_ANOMALY":94.7908,"EPHEMERIS_TYPE":0,"CLASSIFICATION_TYPE":"U","NORAD_CAT_ID":59460,"ELEMENT_SET_NO":999,"REV_AT_EPOCH":9213,"BSTAR":6.3886e-5,"MEAN_MOTION_DOT":1.497e-5,"MEAN_MOTION_DDOT":0},{"OBJECT_NAME":"STARLINK-31511","OBJECT_ID":"2024-068H","EPOCH":"2025-11-22T06:40:17.851296","MEAN_MOTION":15.27607082,"ECCENTRICITY":0.0001478,"INCLINATION":43.0037,"RA_OF_ASC_NODE":281.2853,"ARG_OF_PERICENTER":258.3417,"MEAN_ANOMALY":101.7269,"EPHEMERIS_TYPE":0,"CLASSIFICATION_TYPE":"U","NORAD_CAT_ID":59462,"ELEMENT_SET_NO":999,"REV_AT_EPOCH":9209,"BSTAR":0.00018742,"MEAN_MOTION_DOT":4.903e-5,"MEAN_MOTION_DDOT":0},{"OBJECT_NAME":"STARLINK-31364","OBJECT_ID":"2024-068J","EPOCH":"2025-11-22T06:02:09.556800","MEAN_MOTION":15.27587949,"ECCENTRICITY":1.83e-5,"INCLINATION":43.0022,"RA_OF_ASC_NODE":277.6268,"ARG_OF_PERICENTER":293.6446,"MEAN_ANOMALY":66.4387,"EPHEMERIS_TYPE":0,"CLASSIFICATION_TYPE":"U","NORAD_CAT_ID":59463,"ELEMENT_SET_NO":999,"REV_AT_EPOCH":9213,"BSTAR":4.1957e-5,"MEAN_MOTION_DOT":8.93e-6,"MEAN_MOTION_DDOT":0},{"OBJECT_NAME":"STARLINK-31597","OBJECT_ID":"2024-068K","EPOCH":"2025-11-22T06:25:31.020096","MEAN_MOTION":15.27588813,"ECCENTRICITY":7.22e-5,"INCLINATION":43.0011,"RA_OF_ASC_NODE":281.2086,"ARG_OF_PERICENTER":304.3806,"MEAN_ANOMALY":55.6977,"EPHEMERIS_TYPE":0,"CLASSIFICATION_TYPE":"U","NORAD_CAT_ID":59464,"ELEMENT_SET_NO":999,"REV_AT_EPOCH":9204,"BSTAR":6.3774e-5,"MEAN_MOTION_DOT":1.494e-5,"MEAN_MOTION_DDOT":0},{"OBJECT_NAME":"STARLINK-31621","OBJECT_ID":"2024-068L","EPOCH":"2025-11-21T07:02:25.287936","MEAN_MOTION":15.27593773,"ECCENTRICITY":0.0001058,"INCLINATION":43.0037,"RA_OF_ASC_NODE":286.807,"ARG_OF_PERICENTER":263.5284,"MEAN_ANOMALY":96.5447,"EPHEMERIS_TYPE":0,"CLASSIFICATION_TYPE":"U","NORAD_CAT_ID":59465,"ELEMENT_SET_NO":999,"REV_AT_EPOCH":9194,"BSTAR":0.00010134,"MEAN_MOTION_DOT":2.529e-5,"MEAN_MOTION_DDOT":0},{"OBJECT_NAME":"STARLINK-31462","OBJECT_ID":"2024-068M","EPOCH":"2025-11-21T22:23:35.076768","MEAN_MOTION":15.27622253,"ECCENTRICITY":9.25e-5,"INCLINATION":43.0003,"RA_OF_ASC_NODE":282.9792,"ARG_OF_PERICENTER":250.3969,"MEAN_ANOMALY":109.6783,"EPHEMERIS_TYPE":0,"CLASSIFICATION_TYPE":"U","NORAD_CAT_ID":59466,"ELEMENT_SET_NO":999,"REV_AT_EPOCH":9204,"BSTAR":0.00032421,"MEAN_MOTION_DOT":8.681e-5,"MEAN_MOTION_DDOT":0},{"OBJECT_NAME":"STARLINK-31592","OBJECT_ID":"2024-068N","EPOCH":"2025-11-22T06:51:25.414848","MEAN_MOTION":15.27589303,"ECCENTRICITY":7.79e-5,"INCLINATION":42.9992,"RA_OF_ASC_NODE":281.3441,"ARG_OF_PERICENTER":283.2534,"MEAN_ANOMALY":76.823,"EPHEMERIS_TYPE":0,"CLASSIFICATION_TYPE":"U","NORAD_CAT_ID":59467,"ELEMENT_SET_NO":999,"REV_AT_EPOCH":9209,"BSTAR":9.094e-5,"MEAN_MOTION_DOT":2.242e-5,"MEAN_MOTION_DDOT":0},{"OBJECT_NAME":"STARLINK-31267","OBJECT_ID":"2024-068P","EPOCH":"2025-11-21T21:10:19.162272","MEAN_MOTION":15.27582656,"ECCENTRICITY":0.0001232,"INCLINATION":43.0038,"RA_OF_ASC_NODE":279.1402,"ARG_OF_PERICENTER":256.9035,"MEAN_ANOMALY":103.1679,"EPHEMERIS_TYPE":0,"CLASSIFICATION_TYPE":"U","NORAD_CAT_ID":59468,"ELEMENT_SET_NO":999,"REV_AT_EPOCH":9208,"BSTAR":1.4876e-5,"MEAN_MOTION_DOT":1.47e-6,"MEAN_MOTION_DDOT":0},{"OBJECT_NAME":"STARLINK-31381","OBJECT_ID":"2024-068Q","EPOCH":"2025-11-21T22:42:51.082848","MEAN_MOTION":15.27570617,"ECCENTRICITY":0.0002136,"INCLINATION":43.0057,"RA_OF_ASC_NODE":279.6379,"ARG_OF_PERICENTER":269.146,"MEAN_ANOMALY":90.9147,"EPHEMERIS_TYPE":0,"CLASSIFICATION_TYPE":"U","NORAD_CAT_ID":59469,"ELEMENT_SET_NO":999,"REV_AT_EPOCH":9208,"BSTAR":-6.2578e-5,"MEAN_MOTION_DOT":-1.984e-5,"MEAN_MOTION_DDOT":0},{"OBJECT_NAME":"STARLINK-31546","OBJECT_ID":"2024-068R","EPOCH":"2025-11-22T06:05:52.161216","MEAN_MOTION":15.27585235,"ECCENTRICITY":2.65e-5,"INCLINATION":43.0005,"RA_OF_ASC_NODE":277.6467,"ARG_OF_PERICENTER":351.7792,"MEAN_ANOMALY":8.3055,"EPHEMERIS_TYPE":0,"CLASSIFICATION_TYPE":"U","NORAD_CAT_ID":59470,"ELEMENT_SET_NO":999,"REV_AT_EPOCH":9213,"BSTAR":0.00027802,"MEAN_MOTION_DOT":7.398e-5,"MEAN_MOTION_DDOT":0},{"OBJECT_NAME":"STARLINK-31575","OBJECT_ID":"2024-068S","EPOCH":"2025-11-22T06:16:58.090944","MEAN_MOTION":15.27597818,"ECCENTRICITY":9.88e-5,"INCLINATION":43.0031,"RA_OF_ASC_NODE":277.7058,"ARG_OF_PERICENTER":340.881,"MEAN_ANOMALY":19.2005,"EPHEMERIS_TYPE":0,"CLASSIFICATION_TYPE":"U","NORAD_CAT_ID":59471,"ELEMENT_SET_NO":999,"REV_AT_EPOCH":9213,"BSTAR":-1.6518e-5,"MEAN_MOTION_DOT":-7.17e-6,"MEAN_MOTION_DDOT":0}]
