STARLINK-31708          
1 59439U 24065U   25325.59855771 -.00001765  00000+0 -47506-4 0  9997
2 59439  53.1612  63.4986 0001233 152.9144 207.1921 15.30176948 92389
STARLINK-31693          
1 59441U 24065W   25326.47296532 -.00000093  00000+0  89965-5 0  9990
2 59441  53.1611  59.7110 0001255  81.6161 278.4982 15.30191718 92514
STARLINK-31622          
1 59456U 24068B   25325.95493304  .00006198  00000+0  23472-3 0  9997
2 59456  43.0026 283.1602 0001212 274.5825  85.4888 15.27559088 92043
STARLINK-31319          
1 59457U 24068C   25325.93099949  .00000281  00000+0  19750-4 0  9995
2 59457  43.0041 279.5250 0001140 271.8362  88.2359 15.27582952 92089
STARLINK-31625          
1 59458U 24068D   25326.27156970  .00001407  00000+0  60606-4 0  9999
2 59458  43.0032 281.2371 0001232 276.0119  84.0592 15.27599051 92095
STARLINK-31631          
1 59459U 24068E   25326.24379436  .00006144  00000+0  23277-3 0  9996
2 59459  43.0016 277.5686 0000460 273.8067  86.2732 15.27556149 92130
STARLINK-31620          
1 59460U 24068F   25326.26563404  .00001497  00000+0  63886-4 0  9997
2 59460  43.0026 277.7325 0000977 265.2833  94.7908 15.27587752 92137
STARLINK-31511          
1 59462U 24068H   25326.27798439  .00004903  00000+0  18742-3 0  9993
2 59462  43.0037 281.2853 0001478 258.3417 101.7269 15.27607082 92098
STARLINK-31364          
1 59463U 24068J   25326.25149950  .00000893  00000+0  41957-4 0  9999
2 59463  43.0022 277.6268 0000183 293.6446  66.4387 15.27587949 92130
STARLINK-31597          
1 59464U 24068K   25326.26772014  .00001494  00000+0  63774-4 0  9993
2 59464  43.0011 281.2086 0000722 304.3806  55.6977 15.27588813 92043
STARLINK-31621          
1 59465U 24068L   25325.29334824  .00002529  00000+0  10134-3 0  9990
2 59465  43.0037 286.8070 0001058 263.5284  96.5447 15.27593773 91940
STARLINK-31462          
1 59466U 24068M   25325.93304487  .00008681  00000+0  32421-3 0  9992
2 59466  43.0003 282.9792 0000925 250.3969 109.6783 15.27622253 92045
STARLINK-31592          
1 59467U 24068N   25326.28571082  .00002242  00000+0  90940-4 0  9997
2 59467  42.9992 281.3441 0000779 283.2534  76.8230 15.27589303 92090
STARLINK-31267          
1 59468U 24068P   25325.88216623  .00000147  00000+0  14876-4 0  9996
2 59468  43.0038 279.1402 0001232 256.9035 103.1679 15.27582656 92088
STARLINK-31381          
1 59469U 24068Q   25325.94642457 -.00001984  00000+0 -62578-4 0  9996
2 59469  43.0057 279.6379 0002136 269.1460  90.9147 15.27570617 92087
STARLINK-31546          
1 59470U 24068R   25326.25407594  .00007398  00000+0  27802-3 0  9997
2 59470  43.0005 277.6467 0000265 351.7792   8.3055 15.27585235 92134
STARLINK-31575          
1 59471U 24068S   25326.26178346 -.00000717  00000+0 -16518-4 0  9992
2 59471  43.0031 277.7058 0000988 340.8810  19.2005 15.27597818 92139
